TELSTAR 12V             
1 41036U 15068A   23003.44653253 -.00000107  00000+0  00000+0 0  9991
2 41036   0.0170 345.8419 0002618 297.4105 325.3007  1.00270078 26084
CHINASAT 1C (ZX 1C)     
1 41103U 15073A   23002.67623329 -.00000112  00000+0  00000+0 0  9993
2 41103   3.8884  83.2087 0002140 168.0079 172.5527  1.00270734 26009
ELEKTRO-L 2             
1 41105U 15074A   23003.44670686 -.00000107  00000+0  00000+0 0  9994
2 41105   3.4902  85.7863 0002401 159.6570   3.7014  1.00270861 25870
COSMOS 2513             
1 41121U 15075A   23003.24771514 -.00000126  00000+0  00000+0 0  9994
2 41121   0.0717 108.2300 0003951 161.3343   2.4661  1.00270847 25958
EXPRESS-AMU1            
1 41191U 15082A   23002.90118812  .00000167  00000+0  00000+0 0  9991
2 41191   0.0195  71.4734 0003042 220.0782 171.2287  1.00273846 25623
GAOFEN 4                
1 41194U 15083A   23002.82513329 -.00000323  00000+0  00000+0 0  9993
2 41194   0.1118 215.5499 0006537 339.5592 309.8414  1.00271893 25887
BELINTERSAT-1           
1 41238U 16001A   23003.17292161  .00000118  00000+0  00000+0 0  9991
2 41238   0.0200 107.5886 0001684 115.1099 353.6103  1.00273933 25581
IRNSS-1E                
1 41241U 16003A   23002.61993715 -.00000316  00000+0  00000+0 0  9999
2 41241  30.4250  81.5370 0022131 187.0053 168.3748  1.00278121 25427
EUTELSAT 9B             
1 41310U 16005A   23003.52297625  .00000074  00000+0  00000+0 0  9996
2 41310   0.0368  58.8134 0005351 209.5150  31.7951  1.00271184 25460
SES-9                   
1 41380U 16013A   23003.55188215 -.00000333  00000+0  00000+0 0  9998
2 41380   0.0261 304.2232 0000535  49.3999  56.2541  1.00269630 25118
EUTELSAT 65 WEST A      
1 41382U 16014A   23002.86278856 -.00000264  00000+0  00000+0 0  9998
2 41382   0.0694 320.3927 0002234 315.2463  71.9836  1.00269449 24892
IRNSS-1F                
1 41384U 16015A   23003.16908635  .00000171  00000+0  00000+0 0  9996
2 41384   2.4747 143.0150 0022175 179.3370 233.4220  1.00273095 25018
BEIDOU IGSO-6           
1 41434U 16021A   23002.59146735 -.00000169  00000+0  00000+0 0  9998
2 41434  58.3903  50.7832 0049581 222.5307 136.8763  1.00286920 24827
IRNSS-1G                
1 41469U 16027A   23003.54712094 -.00000322  00000+0  00000+0 0  9996
2 41469   2.3868 145.3202 0002934 254.0582  30.0150  1.00273756 24538
JCSAT-2B                
1 41471U 16028A   23002.83472146 -.00000154  00000+0  00000+0 0  9995
2 41471   0.0184  21.8561 0001187 258.9175 275.8975  1.00270815 24473
THAICOM 8               
1 41552U 16031A   23002.89137868 -.00000110  00000+0  00000+0 0  9996
2 41552   0.0904  65.6049 0003799 252.7958 183.2522  1.00271800 24073
INTELSAT 31 (IS-31)     
1 41581U 16035A   23002.55118894 -.00000139  00000+0  00000+0 0  9994
2 41581   0.0225 273.1593 0002598 290.4608   1.6658  1.00270980 24046
BEIDOU-2 G7             
1 41586U 16037A   23002.82609211 -.00000344  00000+0  00000+0 0  9997
2 41586   1.8258  70.1084 0007612 344.6521  95.3236  1.00267908 24143
ABS-2A (MONGOLSAT-1)    
1 41588U 16038A   23002.81894457 -.00000072  00000+0  00000+0 0  9995
2 41588   0.0238   7.6362 0001402 178.7429 285.3507  1.00267866 24057
EUTELSAT 117 WEST B     
1 41589U 16038B   23003.49795987  .00000001  00000+0  00000+0 0  9990
2 41589   0.0127 155.3283 0000215 268.3690 101.4102  1.00272128 24062
BRISAT                  
1 41591U 16039A   23003.19262090 -.00000185  00000+0  00000+0 0  9999
2 41591   0.0200  16.0839 0002283 265.4644  40.8516  1.00269650 23993
ECHOSTAR 18             
1 41592U 16039B   23003.22216981 -.00000270  00000+0  00000+0 0  9997
2 41592   0.0274  34.6095 0001798 251.4086 195.1888  1.00269705 23975
MUOS-5                  
1 41622U 16041A   23003.47757971 -.00000130  00000+0  00000+0 0  9995
2 41622   5.1410 299.4396 0196396 242.0831 348.2482  1.00272299 24429
TIANTONG-1 1            
1 41725U 16048A   23003.43035437 -.00000307  00000+0  00000+0 0  9994
2 41725   2.2540   7.5644 0007822 321.2916  30.2636  1.00269982 23623
JCSAT-16                
1 41729U 16050A   23003.53988624 -.00000241  00000+0  00000+0 0  9994
2 41729   0.0617  86.6532 0004241 196.2198 107.3692  1.00269687 23424
USA 270                 
1 41744U 16052A   23003.40887725 -.00000114  00000+0  00000+0 0  9998
2 41744   0.9591  93.3983 0000700 285.3458  26.8205  1.00389908  6101
USA 271                 
1 41745U 16052B   23003.21091020 -.00000135  00000+0  00000+0 0  9996
2 41745   0.9253  93.4032 0000418 136.1385  33.0249  1.00143319  6091
INTELSAT 36 (IS-36)     
1 41747U 16053A   23002.87896493 -.00000013  00000+0  00000+0 0  9992
2 41747   0.0102   4.9015 0001038 351.7676 130.5011  1.00271414 23303
INTELSAT 33E (IS-33E)   
1 41748U 16053B   23002.87896493  .00000061  00000+0  00000+0 0  9995
2 41748   0.0269 302.9662 0001828 320.3908 215.2830  1.00271540 23607
INSAT-3DR               
1 41752U 16054A   23002.81877024 -.00000066  00000+0  00000+0 0  9990
2 41752   0.1405  95.1084 0014085 176.2651 199.5584  1.00271983 23179
GSAT-18                 
1 41793U 16060A   23003.09702250 -.00000065  00000+0  00000+0 0  9990
2 41793   0.0262  82.9787 0002445 196.8722 291.5285  1.00272384 22886
SKY MUSTER 2 (NBN1B)    
1 41794U 16060B   23003.00882854 -.00000232  00000+0  00000+0 0  9997
2 41794   0.0137 324.6048 0001750 315.5464 330.2033  1.00271466 22922
HIMAWARI-9              
1 41836U 16064A   23003.41021772 -.00000263  00000+0  00000+0 0  9991
2 41836   0.0474 205.3713 0001473 113.0817  72.7349  1.00271114 22661
SHIJIAN-17 (SJ-17)      
1 41838U 16065A   23003.61179736 -.00000253  00000+0  00000+0 0  9999
2 41838   2.5342  87.4643 0004056 252.8462  77.0673  1.00268824 22586
GOES 16                 
1 41866U 16071A   23003.54633051 -.00000236  00000+0  00000+0 0  9995
2 41866   0.0842 252.9575 0000904  53.8585 277.5678  1.00271782 22478
TIANLIAN 1-04           
1 41869U 16072A   23003.54771681  .00000043  00000+0  00000+0 0  9996
2 41869   0.0352  75.8983 0021218  60.2591 340.7302  1.00269272 22661
WGS F8 (USA 272)        
1 41879U 16075A   23003.47939373 -.00000190  00000+0  00000+0 0  9990
2 41879   0.0164  58.8151 0000241 184.4811 181.8841  1.00274237 22285
FENGYUN 4A              
1 41882U 16077A   23003.47041574 -.00000318  00000+0  00000+0 0  9995
2 41882   0.0410  39.3853 0005309  14.6096 322.8194  1.00276012 22343
ECHOSTAR 19             
1 41893U 16079A   23003.43023267 -.00000126  00000+0  00000+0 0  9991
2 41893   0.0169  42.0759 0001704 248.8150 229.6641  1.00272800 22093
JCSAT-110A (JCSAT-15)   
1 41903U 16082A   23002.75424597 -.00000339  00000+0  00000+0 0  9998
2 41903   0.0181  17.3310 0001599 265.7225 200.6538  1.00271257 22112
STAR ONE D1             
1 41904U 16082B   23003.43284764 -.00000199  00000+0  00000+0 0  9999
2 41904   0.0153  65.2003 0001951 212.8628 256.5503  1.00272487 22146
TJS-2                   
1 41911U 17001A   23002.87896493  .00000005  00000+0  00000+0 0  9999
2 41911   0.0622  52.4826 0004901 177.4806 255.1790  1.00272408 22087
SBIRS GEO-4 (USA 273)   
1 41937U 17004A   23003.42623338  .00000144  00000+0  00000+0 0  9992
2 41937   1.9740 324.2890 0002567 311.0578 181.4707  1.00272240 21953
HISPASAT 36W-1          
1 41942U 17006A   23003.11577233 -.00000233  00000+0  00000+0 0  9998
2 41942   0.0118   9.3074 0001089 275.5409 183.3104  1.00269705 21884
TELKOM 3S               
1 41944U 17007A   23003.54485464 -.00000350  00000+0  00000+0 0  9992
2 41944   0.0166 340.7341 0002604 295.4267 140.8739  1.00270857 21573
INTELSAT 32E (IS-32E)   
1 41945U 17007B   23003.51269076 -.00000257  00000+0  00000+0 0  9995
2 41945   0.0178  38.3536 0000243 169.7038  36.1951  1.00269990 21602
ECHOSTAR 23             
1 42070U 17014A   23002.63866519 -.00000045  00000+0  00000+0 0  9995
2 42070   0.0269  30.6560 0002166 252.8683 298.4988  1.00271573 21277
WGS F9 (USA 275)        
1 42075U 17016A   23003.10466358 -.00000084  00000+0  00000+0 0  9995
2 42075   0.0130  71.0077 0000363  99.7278 317.4196  1.00274873 21286
SES-10                  
1 42432U 17017A   23003.36451025 -.00000261  00000+0  00000+0 0  9993
2 42432   0.0180  53.0861 0003130 232.7380 241.2207  1.00272146 21083
CHINASAT 16 (SJ-13)     
1 42662U 17018A   23003.50882964 -.00000340  00000+0  00000+0 0  9993
2 42662   0.0635  83.8775 0007760 169.6764 142.9939  1.00270291 21106
KOREASAT 7              
1 42691U 17023A   23002.82713808 -.00000350  00000+0  00000+0 0  9996
2 42691   0.0221  12.6528 0001461 234.6789 268.5320  1.00272522 20733
SGDC                    
1 42692U 17023B   23001.92644040 -.00000239  00000+0  00000+0 0  9994
2 42692   0.0355  80.3816 0002393 201.4948  78.0873  1.00272245 20760
GSAT-9                  
1 42695U 17024A   23002.82338999 -.00000274  00000+0  00000+0 0  9990
2 42695   0.0256 100.1061 0002283 166.3142 229.4837  1.00268497 20664
INMARSAT 5-F4           
1 42698U 17025A   23003.17396758  .00000087  00000+0  00000+0 0  9991
2 42698   0.0277  34.1666 0000746 255.2801 292.1971  1.00271147 20616
SES-15                  
1 42709U 17026A   23002.70656672  .00000072  00000+0  00000+0 0  9991
2 42709   0.0168 358.6116 0000432 269.6795 318.9913  1.00267070 21495
QZS-2 (MICHIBIKI-2)     
1 42738U 17028A   23003.54494028 -.00000155  00000+0  00000+0 0  9996
2 42738  41.4399 261.3345 0755566 269.6351 269.1309  1.00281248 20497
VIASAT-2                
1 42740U 17029A   23003.22042650 -.00000253  00000+0  00000+0 0  9994
2 42740   0.0191 299.2951 0000352 327.7838 204.9368  1.00272459 20537
EUTELSAT 172B           
1 42741U 17029B   23003.55882777  .00000007  00000+0  00000+0 0  9999
2 42741   0.0544 165.8099 0000186  85.9864 224.2766  1.00271755 21073
GSAT-19                 
1 42747U 17031A   23003.17222428  .00000137  00000+0  00000+0 0  9991
2 42747   0.0438  96.0139 0000205  88.2762  28.0760  1.00271379 20486
